STARLINK-4103           
1 53141U 22083K   25218.89491244 -.00000313  00000+0 -15798-5 0  9991
2 53141  53.2176  58.3717 0001357  87.4845 272.6302 15.08842634168797
STARLINK-4101           
1 53142U 22083L   25218.90321375 -.00007432  00000+0 -44899-3 0  9992
2 53142  53.2171  58.3068 0001124  97.6431 262.4689 15.08869729168809
STARLINK-4102           
1 53143U 22083M   25218.89123359 -.00000047  00000+0  15119-4 0  9991
2 53143  53.2175  58.3883 0001350  93.5378 266.5768 15.08841026168796
STARLINK-4100           
1 53144U 22083N   25218.90227528 -.00000397  00000+0 -68258-5 0  9999
2 53144  53.2167  58.3461 0001333  88.2313 271.8832 15.08838495168798
STARLINK-4106           
1 53145U 22083P   25218.88387440  .00000088  00000+0  23599-4 0  9990
2 53145  53.2171  58.4215 0001342  89.6296 270.4850 15.08841002168790
STARLINK-4094           
1 53147U 22083R   25218.88019619 -.00001321  00000+0 -64910-4 0  9997
2 53147  53.2165  58.4416 0001593  81.2162 278.9011 15.08844802169442
STARLINK-4021           
1 53149U 22083T   25218.84162629 -.00001096  00000+0 -50803-4 0  9990
2 53149  53.2185  48.8177 0001286  90.0221 270.0919 15.08831982168923
STARLINK-4038           
1 53150U 22083U   25218.92895344  .00000346  00000+0  39834-4 0  9994
2 53150  53.2167  48.2207 0001403  89.3565 270.7588 15.08840811168937
STARLINK-4040           
1 53151U 22083V   25218.91790317  .00004429  00000+0  29607-3 0  9990
2 53151  53.2188  48.2680 0002059  87.2123 272.9105 15.08854523168935
STARLINK-4045           
1 53152U 22083W   25218.85903486 -.00000215  00000+0  46006-5 0  9991
2 53152  53.2176  48.5345 0001429  90.2581 269.8575 15.08840340168923
STARLINK-4098           
1 53153U 22083X   25218.84799782  .00000262  00000+0  34529-4 0  9990
2 53153  53.2184  48.5849 0001337  88.5742 271.5403 15.08837739168927
STARLINK-4077           
1 53154U 22083Y   25218.85535305 -.00001381  00000+0 -68667-4 0  9996
2 53154  53.2171  48.5523 0001472  82.8430 277.2729 15.08836049168921
STARLINK-4088           
1 53155U 22083Z   25218.90687988  .00000084  00000+0  23389-4 0  9997
2 53155  53.2184  48.3187 0001527  91.2589 268.8578 15.08834304169572
STARLINK-4087           
1 53156U 22083AA  25218.82958269  .00000335  00000+0  39146-4 0  9999
2 53156  53.2187  48.5416 0001308  88.6540 271.4602 15.08836558168926
STARLINK-4093           
1 53157U 22083AB  25218.85383834  .05336376  12291-4  59370-3 0  9995
2 53157  53.2054  16.5376 0009196 301.7828  58.2323 16.36229026169370
STARLINK-4054           
1 53158U 22083AC  25218.84431692 -.00000242  00000+0  28932-5 0  9999
2 53158  53.2182  48.5987 0001417  83.6045 276.5109 15.08838563168928
