[{"OBJECT_NAME":"STARLINK-4103","OBJECT_ID":"2022-083K","EPOCH":"2025-08-06T21:28:40.434816","MEAN_MOTION":15.08842634,"ECCENTRICITY":0.00013574,"INCLINATION":53.2176,"RA_OF_ASC_NODE":58.3717,"ARG_OF_PERICENTER":87.4845,"MEAN_ANOMALY":272.6302,"EPHEMERIS_TYPE":0,"CLASSIFICATION_TYPE":"U","NORAD_CAT_ID":53141,"ELEMENT_SET_NO":999,"REV_AT_EPOCH":16879,"BSTAR":-1.579836e-6,"MEAN_MOTION_DOT":-3.13e-6,"MEAN_MOTION_DDOT":0},{"OBJECT_NAME":"STARLINK-4101","OBJECT_ID":"2022-083L","EPOCH":"2025-08-06T21:40:37.668000","MEAN_MOTION":15.08869729,"ECCENTRICITY":0.00011248,"INCLINATION":53.2171,"RA_OF_ASC_NODE":58.3068,"ARG_OF_PERICENTER":97.6431,"MEAN_ANOMALY":262.4689,"EPHEMERIS_TYPE":0,"CLASSIFICATION_TYPE":"U","NORAD_CAT_ID":53142,"ELEMENT_SET_NO":999,"REV_AT_EPOCH":16880,"BSTAR":-0.00044899235,"MEAN_MOTION_DOT":-7.432e-5,"MEAN_MOTION_DDOT":0},{"OBJECT_NAME":"STARLINK-4102","OBJECT_ID":"2022-083M","EPOCH":"2025-08-06T21:23:22.582176","MEAN_MOTION":15.08841026,"ECCENTRICITY":0.00013505,"INCLINATION":53.2175,"RA_OF_ASC_NODE":58.3883,"ARG_OF_PERICENTER":93.5378,"MEAN_ANOMALY":266.5768,"EPHEMERIS_TYPE":0,"CLASSIFICATION_TYPE":"U","NORAD_CAT_ID":53143,"ELEMENT_SET_NO":999,"REV_AT_EPOCH":16879,"BSTAR":1.5119137e-5,"MEAN_MOTION_DOT":-4.7e-7,"MEAN_MOTION_DDOT":0},{"OBJECT_NAME":"STARLINK-4100","OBJECT_ID":"2022-083N","EPOCH":"2025-08-06T21:39:16.584192","MEAN_MOTION":15.08838495,"ECCENTRICITY":0.00013336,"INCLINATION":53.2167,"RA_OF_ASC_NODE":58.3461,"ARG_OF_PERICENTER":88.2313,"MEAN_ANOMALY":271.8832,"EPHEMERIS_TYPE":0,"CLASSIFICATION_TYPE":"U","NORAD_CAT_ID":53144,"ELEMENT_SET_NO":999,"REV_AT_EPOCH":16879,"BSTAR":-6.825758e-6,"MEAN_MOTION_DOT":-3.97e-6,"MEAN_MOTION_DDOT":0},{"OBJECT_NAME":"STARLINK-4106","OBJECT_ID":"2022-083P","EPOCH":"2025-08-06T21:12:46.748160","MEAN_MOTION":15.08841002,"ECCENTRICITY":0.00013429,"INCLINATION":53.2171,"RA_OF_ASC_NODE":58.4215,"ARG_OF_PERICENTER":89.6296,"MEAN_ANOMALY":270.485,"EPHEMERIS_TYPE":0,"CLASSIFICATION_TYPE":"U","NORAD_CAT_ID":53145,"ELEMENT_SET_NO":999,"REV_AT_EPOCH":16879,"BSTAR":2.3598698e-5,"MEAN_MOTION_DOT":8.8e-7,"MEAN_MOTION_DDOT":0},{"OBJECT_NAME":"STARLINK-4094","OBJECT_ID":"2022-083R","EPOCH":"2025-08-06T21:07:28.950816","MEAN_MOTION":15.08844802,"ECCENTRICITY":0.0001593,"INCLINATION":53.2165,"RA_OF_ASC_NODE":58.4416,"ARG_OF_PERICENTER":81.2162,"MEAN_ANOMALY":278.9011,"EPHEMERIS_TYPE":0,"CLASSIFICATION_TYPE":"U","NORAD_CAT_ID":53147,"ELEMENT_SET_NO":999,"REV_AT_EPOCH":16944,"BSTAR":-6.4910135e-5,"MEAN_MOTION_DOT":-1.321e-5,"MEAN_MOTION_DDOT":0},{"OBJECT_NAME":"STARLINK-4021","OBJECT_ID":"2022-083T","EPOCH":"2025-08-06T20:11:56.511456","MEAN_MOTION":15.08831982,"ECCENTRICITY":0.0001286,"INCLINATION":53.2185,"RA_OF_ASC_NODE":48.8177,"ARG_OF_PERICENTER":90.0221,"MEAN_ANOMALY":270.0919,"EPHEMERIS_TYPE":0,"CLASSIFICATION_TYPE":"U","NORAD_CAT_ID":53149,"ELEMENT_SET_NO":999,"REV_AT_EPOCH":16892,"BSTAR":-5.0802944e-5,"MEAN_MOTION_DOT":-1.096e-5,"MEAN_MOTION_DDOT":0},{"OBJECT_NAME":"STARLINK-4038","OBJECT_ID":"2022-083U","EPOCH":"2025-08-06T22:17:41.577216","MEAN_MOTION":15.08840811,"ECCENTRICITY":0.00014038,"INCLINATION":53.2167,"RA_OF_ASC_NODE":48.2207,"ARG_OF_PERICENTER":89.3565,"MEAN_ANOMALY":270.7588,"EPHEMERIS_TYPE":0,"CLASSIFICATION_TYPE":"U","NORAD_CAT_ID":53150,"ELEMENT_SET_NO":999,"REV_AT_EPOCH":16893,"BSTAR":3.9833959e-5,"MEAN_MOTION_DOT":3.46e-6,"MEAN_MOTION_DDOT":0},{"OBJECT_NAME":"STARLINK-4040","OBJECT_ID":"2022-083V","EPOCH":"2025-08-06T22:01:46.833888","MEAN_MOTION":15.08854523,"ECCENTRICITY":0.00020594,"INCLINATION":53.2188,"RA_OF_ASC_NODE":48.268,"ARG_OF_PERICENTER":87.2123,"MEAN_ANOMALY":272.9105,"EPHEMERIS_TYPE":0,"CLASSIFICATION_TYPE":"U","NORAD_CAT_ID":53151,"ELEMENT_SET_NO":999,"REV_AT_EPOCH":16893,"BSTAR":0.00029607159,"MEAN_MOTION_DOT":4.429e-5,"MEAN_MOTION_DDOT":0},{"OBJECT_NAME":"STARLINK-4045","OBJECT_ID":"2022-083W","EPOCH":"2025-08-06T20:37:00.611904","MEAN_MOTION":15.0884034,"ECCENTRICITY":0.00014292,"INCLINATION":53.2176,"RA_OF_ASC_NODE":48.5345,"ARG_OF_PERICENTER":90.2581,"MEAN_ANOMALY":269.8575,"EPHEMERIS_TYPE":0,"CLASSIFICATION_TYPE":"U","NORAD_CAT_ID":53152,"ELEMENT_SET_NO":999,"REV_AT_EPOCH":16892,"BSTAR":4.600568e-6,"MEAN_MOTION_DOT":-2.15e-6,"MEAN_MOTION_DDOT":0},{"OBJECT_NAME":"STARLINK-4098","OBJECT_ID":"2022-083X","EPOCH":"2025-08-06T20:21:07.011648","MEAN_MOTION":15.08837739,"ECCENTRICITY":0.00013379,"INCLINATION":53.2184,"RA_OF_ASC_NODE":48.5849,"ARG_OF_PERICENTER":88.5742,"MEAN_ANOMALY":271.5403,"EPHEMERIS_TYPE":0,"CLASSIFICATION_TYPE":"U","NORAD_CAT_ID":53153,"ELEMENT_SET_NO":999,"REV_AT_EPOCH":16892,"BSTAR":3.4528687e-5,"MEAN_MOTION_DOT":2.62e-6,"MEAN_MOTION_DDOT":0},{"OBJECT_NAME":"STARLINK-4077","OBJECT_ID":"2022-083Y","EPOCH":"2025-08-06T20:31:42.503520","MEAN_MOTION":15.08836049,"ECCENTRICITY":0.00014729,"INCLINATION":53.2171,"RA_OF_ASC_NODE":48.5523,"ARG_OF_PERICENTER":82.843,"MEAN_ANOMALY":277.2729,"EPHEMERIS_TYPE":0,"CLASSIFICATION_TYPE":"U","NORAD_CAT_ID":53154,"ELEMENT_SET_NO":999,"REV_AT_EPOCH":16892,"BSTAR":-6.8666737e-5,"MEAN_MOTION_DOT":-1.381e-5,"MEAN_MOTION_DDOT":0},{"OBJECT_NAME":"STARLINK-4088","OBJECT_ID":"2022-083Z","EPOCH":"2025-08-06T21:45:54.421632","MEAN_MOTION":15.08834304,"ECCENTRICITY":0.00015274,"INCLINATION":53.2184,"RA_OF_ASC_NODE":48.3187,"ARG_OF_PERICENTER":91.2589,"MEAN_ANOMALY":268.8578,"EPHEMERIS_TYPE":0,"CLASSIFICATION_TYPE":"U","NORAD_CAT_ID":53155,"ELEMENT_SET_NO":999,"REV_AT_EPOCH":16957,"BSTAR":2.338921e-5,"MEAN_MOTION_DOT":8.4e-7,"MEAN_MOTION_DDOT":0},{"OBJECT_NAME":"STARLINK-4087","OBJECT_ID":"2022-083AA","EPOCH":"2025-08-06T19:54:35.944416","MEAN_MOTION":15.08836558,"ECCENTRICITY":0.00013086,"INCLINATION":53.2187,"RA_OF_ASC_NODE":48.5416,"ARG_OF_PERICENTER":88.654,"MEAN_ANOMALY":271.4602,"EPHEMERIS_TYPE":0,"CLASSIFICATION_TYPE":"U","NORAD_CAT_ID":53156,"ELEMENT_SET_NO":999,"REV_AT_EPOCH":16892,"BSTAR":3.9145889e-5,"MEAN_MOTION_DOT":3.35e-6,"MEAN_MOTION_DDOT":0},{"OBJECT_NAME":"STARLINK-4093","OBJECT_ID":"2022-083AB","EPOCH":"2025-08-06T20:29:31.632576","MEAN_MOTION":16.36229026,"ECCENTRICITY":0.00091962,"INCLINATION":53.2054,"RA_OF_ASC_NODE":16.5376,"ARG_OF_PERICENTER":301.7828,"MEAN_ANOMALY":58.2323,"EPHEMERIS_TYPE":0,"CLASSIFICATION_TYPE":"U","NORAD_CAT_ID":53157,"ELEMENT_SET_NO":999,"REV_AT_EPOCH":16937,"BSTAR":0.00059369577,"MEAN_MOTION_DOT":0.05336376,"MEAN_MOTION_DDOT":1.2290881e-5},{"OBJECT_NAME":"STARLINK-4054","OBJECT_ID":"2022-083AC","EPOCH":"2025-08-06T20:15:48.981888","MEAN_MOTION":15.08838563,"ECCENTRICITY":0.00014176,"INCLINATION":53.2182,"RA_OF_ASC_NODE":48.5987,"ARG_OF_PERICENTER":83.6045,"MEAN_ANOMALY":276.5109,"EPHEMERIS_TYPE":0,"CLASSIFICATION_TYPE":"U","NORAD_CAT_ID":53158,"ELEMENT_SET_NO":999,"REV_AT_EPOCH":16892,"BSTAR":2.893158e-6,"MEAN_MOTION_DOT":-2.42e-6,"MEAN_MOTION_DDOT":0}]
